#aV2022  6  9  0  0  0.00000000     288 DD+AD WGS84 FIT  NGA
## 2213 345600.00000000   300.00000000 59739 0.0000000000000
+   32     1  2  3  4  5  6  7  8  9 10 11 12 13 14 15 16 17
+         18 19 20 21 22 23 24 25 26 27 28 29 30 31 32  0  0
+          0  0  0  0  0  0  0  0  0  0  0  0  0  0  0  0  0
+          0  0  0  0  0  0  0  0  0  0  0  0  0  0  0  0  0
+          0  0  0  0  0  0  0  0  0  0  0  0  0  0  0  0  0
++         2  2  2  2  2  2  2  2  2  2  2  2  2  2  2  2  2
++         2  2  2  2  2  2  2  2  2  2  2  2  2  2  2  0  0
++         0  0  0  0  0  0  0  0  0  0  0  0  0  0  0  0  0
++         0  0  0  0  0  0  0  0  0  0  0  0  0  0  0  0  0
++         0  0  0  0  0  0  0  0  0  0  0  0  0  0  0  0  0
%c cc cc ccc ccc cccc cccc cccc cccc ccccc ccccc ccccc ccccc
%c cc cc ccc ccc cccc cccc cccc cccc ccccc ccccc ccccc ccccc
%f  0.0000000  0.000000000  0.00000000000  0.000000000000000
%f  0.0000000  0.000000000  0.00000000000  0.000000000000000
%i    0    0    0    0      0      0      0      0         0
%i    0    0    0    0      0      0      0      0         0
/*      NGA, ST. LOUIS,MO.                                  
/*   EPHEMERIS COMPUTED FROM 2 DAYS OF DATA                 
/*   EPOCHA v7 SMOOTHER                                     
/*   G2139 IERS2010 SATIGS SATAPC                           
*  2022  6  9 16 30  0.00000000
P  1  17056.860996   5586.600060  19397.398196    344.826226                    
V  1  10436.406571  22845.028693 -15178.572720     -0.079669                    
P  2 -14898.104630 -21744.177236  -1821.582732   -652.822418                    
V  2    769.958488  -4130.201107  31865.253088      0.002894                    
P  3  18280.272454  -5386.111587  18336.994535   -273.152274                    
V  3 -11559.964042  20536.104026  17560.838487     -0.123749                    
P  4  26536.444739   1069.977095  -1614.846395   -158.820752                    
V  4   1824.735031   2895.163115  31615.694302      0.039613                    
P  5 -11927.362501  -9744.837576 -21797.884034    -84.921981                    
V  5  14069.504773 -23382.371829   2921.805396     -0.013826                    
P  6  -4154.539709 -23905.427567  10771.256714    336.846381                    
V  6   7720.447920  11306.504742  28304.760335      0.153539                    
P  7  10837.311829 -11538.351315 -20849.341882    321.948553                    
V  7  13305.516823  24135.180017  -6806.943120     -0.003826                    
P  8  25186.787827   5601.201075  -7083.928249    -71.448786                    
V  8  -8909.537313   2063.698184 -29876.226702     -0.015786                    
P  9  22977.061629  -7305.687574 -11237.406010   -329.833766                    
V  9  14094.879725   2965.950343  27018.574675      0.032656                    
P 10 -10608.251601  23566.016871   5554.402668   -448.252067                    
V 10  -5869.286711   4450.440203 -31191.682716     -0.151111                    
P 11 -12629.393334 -23186.822369  -2981.210410    -16.353727                    
V 11    930.175916  -4552.899149  31495.559593      0.029691                    
P 12 -17316.675884    410.057246  19836.707540   -228.534230                    
V 12  14539.243512 -21327.367015  13065.208257     -0.058686                    
P 13 -18685.940463 -13151.262359 -13840.532389    326.892687                    
V 13  17281.237896   1337.817616 -24705.014170      0.069342                    
P 14  12459.373319 -23021.516393   4184.830259   -111.145063                    
V 14   5596.595771  -2597.373667 -31039.639940     -0.008650                    
P 15 -25772.818552  -3017.165089  -6803.005149    -54.561463                    
V 15   7785.557487  -3897.490515 -29265.045867      0.029794                    
P 16   6917.739027  14751.811996 -21156.092788   -507.698872                    
V 16 -16864.106972  20216.278144   9141.708563     -0.028378                    
P 17   8358.006089 -13700.238783  21603.278544    622.987682                    
V 17  26150.235384   3385.346720  -8083.999731      0.046345                    
P 18 -10794.428500  11295.019114 -21473.799068    146.901039                    
V 18 -12466.160135 -24210.512745  -6581.462420     -0.106914                    
P 19  -1064.882558 -14967.336265  21674.561500    168.484850                    
V 19  27768.711436   4129.581313   3955.052487      0.049948                    
P 20  -4832.965006 -19825.694150 -17115.722834    512.759644                    
V 20  10481.062569 -19102.394997  18934.128715     -0.010275                    
P 21  19390.129756  13677.571553  13244.593536    161.306890                    
V 21   6821.854669  14048.600511 -25068.448600      0.000243                    
P 22   4137.537904  15680.174079  21482.250387    273.019127                    
V 22 -26115.154232  -2938.406805   7144.200286      0.062641                    
P 23 -16450.273986  20080.721472  -5361.356654    -27.058995                    
V 23   1330.181779  -7152.715322 -31033.028559     -0.021744                    
P 24 -19280.210695  -8541.317951  16086.951258    224.384804                    
V 24  -9115.477475 -18942.996794 -20185.821243     -0.081678                    
P 25 -18713.706906  14625.391922  11316.814384    335.301537                    
V 25   5630.474513 -14089.598932  27107.083970      0.046492                    
P 26   -328.423438  22154.973124 -14503.507322    211.266838                    
V 26 -11533.844229  14674.381800  23121.326691      0.024218                    
P 27  16242.727383  12566.095480 -17272.505178    213.862797                    
V 27 -21370.817363    236.404650 -19793.941232      0.037688                    
P 28   6295.780824 -22639.467460  13112.262266    341.417389                    
V 28  11097.492175 -11280.055701 -25592.543913     -0.074561                    
P 29 -23316.817772   5064.718440 -11796.379928   -522.351027                    
V 29 -14504.607868  -3604.567450  27175.989895     -0.038553                    
P 30   3738.465818 -20159.662407 -16661.267432   -530.850475                    
V 30  11689.428787  18202.424114 -19553.266341     -0.012127                    
P 31   5521.840583  24412.669801   8024.262765   -181.119416                    
V 31  -7455.742291  -8059.102496  29634.023313     -0.015646                    
P 32  -4867.829462  14954.693262  21529.314139   -147.123533                    
V 32 -26981.772088  -1636.581712  -5183.383801     -0.092457                    
EOF
